[
  {
    "OBJECT_NAME": "STARLINK-5597",
    "OBJECT_ID": "23014N",
    "EPOCH": "2025-11-11T07:26:57.939648",
    "MEAN_MOTION": 14.98324048,
    "ECCENTRICITY": 0.000329,
    "INCLINATION": 69.9997,
    "RA_OF_ASC_NODE": 2.923,
    "ARG_OF_PERICENTER": 273.9468,
    "MEAN_ANOMALY": 86.1315,
    "EPHEMERIS_TYPE": 0,
    "CLASSIFICATION_TYPE": "U",
    "NORAD_CAT_ID": 55403,
    "ELEMENT_SET_NO": 999,
    "REV_AT_EPOCH": 15432,
    "BSTAR": 0.00016511000000000002,
    "MEAN_MOTION_DOT": 1.877e-05,
    "MEAN_MOTION_DDOT": 0.0,
    "TLE_LINE1": "1 55403U 23014N   25315.31039282  .00001877  00000+0  16511-3 0  9990",
    "TLE_LINE2": "2 55403  69.9997   2.9230 0003290 273.9468  86.1315 14.98324048154329",
    "COMMENT": "Grouped by shell and plane from TLE"
  },
  {
    "OBJECT_NAME": "STARLINK-5607",
    "OBJECT_ID": "23014P",
    "EPOCH": "2025-11-11T06:20:53.256192",
    "MEAN_MOTION": 14.98335132,
    "ECCENTRICITY": 0.0002862,
    "INCLINATION": 69.9996,
    "RA_OF_ASC_NODE": 3.1643,
    "ARG_OF_PERICENTER": 265.9108,
    "MEAN_ANOMALY": 94.1724,
    "EPHEMERIS_TYPE": 0,
    "CLASSIFICATION_TYPE": "U",
    "NORAD_CAT_ID": 55404,
    "ELEMENT_SET_NO": 999,
    "REV_AT_EPOCH": 15431,
    "BSTAR": 6.5042e-05,
    "MEAN_MOTION_DOT": 6.83e-06,
    "MEAN_MOTION_DDOT": 0.0,
    "TLE_LINE1": "1 55404U 23014P   25315.26450528  .00000683  00000+0  65042-4 0  9993",
    "TLE_LINE2": "2 55404  69.9996   3.1643 0002862 265.9108  94.1724 14.98335132154314",
    "COMMENT": "Grouped by shell and plane from TLE"
  },
  {
    "OBJECT_NAME": "STARLINK-5623",
    "OBJECT_ID": "23014Q",
    "EPOCH": "2025-11-11T06:02:51.472032",
    "MEAN_MOTION": 14.98335097,
    "ECCENTRICITY": 0.0002912,
    "INCLINATION": 70.0003,
    "RA_OF_ASC_NODE": 3.1218,
    "ARG_OF_PERICENTER": 267.7132,
    "MEAN_ANOMALY": 92.3693,
    "EPHEMERIS_TYPE": 0,
    "CLASSIFICATION_TYPE": "U",
    "NORAD_CAT_ID": 55405,
    "ELEMENT_SET_NO": 999,
    "REV_AT_EPOCH": 15431,
    "BSTAR": 5.6353e-05,
    "MEAN_MOTION_DOT": 5.8e-06,
    "MEAN_MOTION_DDOT": 0.0,
    "TLE_LINE1": "1 55405U 23014Q   25315.25198463  .00000580  00000+0  56353-4 0  9991",
    "TLE_LINE2": "2 55405  70.0003   3.1218 0002912 267.7132  92.3693 14.98335097154313",
    "COMMENT": "Grouped by shell and plane from TLE"
  },
  {
    "OBJECT_NAME": "STARLINK-5630",
    "OBJECT_ID": "23014R",
    "EPOCH": "2025-11-11T06:26:54.974112",
    "MEAN_MOTION": 14.98313738,
    "ECCENTRICITY": 0.000316,
    "INCLINATION": 69.9995,
    "RA_OF_ASC_NODE": 3.1811,
    "ARG_OF_PERICENTER": 276.885,
    "MEAN_ANOMALY": 83.1949,
    "EPHEMERIS_TYPE": 0,
    "CLASSIFICATION_TYPE": "U",
    "NORAD_CAT_ID": 55406,
    "ELEMENT_SET_NO": 999,
    "REV_AT_EPOCH": 15431,
    "BSTAR": 0.0,
    "MEAN_MOTION_DOT": -1.881e-05,
    "MEAN_MOTION_DDOT": 0.0,
    "TLE_LINE1": "1 55406U 23014R   25315.26869183 -.00001881  00000+0 -14996-3 0  9990",
    "TLE_LINE2": "2 55406  69.9995   3.1811 0003160 276.8850  83.1949 14.98313738154314",
    "COMMENT": "Grouped by shell and plane from TLE"
  },
  {
    "OBJECT_NAME": "STARLINK-5019",
    "OBJECT_ID": "23014S",
    "EPOCH": "2025-11-11T06:14:52.590624",
    "MEAN_MOTION": 14.98329666,
    "ECCENTRICITY": 0.0002849,
    "INCLINATION": 69.9998,
    "RA_OF_ASC_NODE": 3.1507,
    "ARG_OF_PERICENTER": 269.4759,
    "MEAN_ANOMALY": 90.6074,
    "EPHEMERIS_TYPE": 0,
    "CLASSIFICATION_TYPE": "U",
    "NORAD_CAT_ID": 55407,
    "ELEMENT_SET_NO": 999,
    "REV_AT_EPOCH": 15431,
    "BSTAR": 0.00010153,
    "MEAN_MOTION_DOT": 1.119e-05,
    "MEAN_MOTION_DDOT": 0.0,
    "TLE_LINE1": "1 55407U 23014S   25315.26033091  .00001119  00000+0  10153-3 0  9995",
    "TLE_LINE2": "2 55407  69.9998   3.1507 0002849 269.4759  90.6074 14.98329666154318",
    "COMMENT": "Grouped by shell and plane from TLE"
  },
  {
    "OBJECT_NAME": "STARLINK-5092",
    "OBJECT_ID": "23014T",
    "EPOCH": "2025-11-11T06:32:54.922560",
    "MEAN_MOTION": 14.98330317,
    "ECCENTRICITY": 0.0003155,
    "INCLINATION": 69.9994,
    "RA_OF_ASC_NODE": 3.1952,
    "ARG_OF_PERICENTER": 269.5249,
    "MEAN_ANOMALY": 90.5548,
    "EPHEMERIS_TYPE": 0,
    "CLASSIFICATION_TYPE": "U",
    "NORAD_CAT_ID": 55408,
    "ELEMENT_SET_NO": 999,
    "REV_AT_EPOCH": 15431,
    "BSTAR": 7.4806e-05,
    "MEAN_MOTION_DOT": 8e-06,
    "MEAN_MOTION_DDOT": 0.0,
    "TLE_LINE1": "1 55408U 23014T   25315.27285790  .00000800  00000+0  74806-4 0  9994",
    "TLE_LINE2": "2 55408  69.9994   3.1952 0003155 269.5249  90.5548 14.98330317154315",
    "COMMENT": "Grouped by shell and plane from TLE"
  },
  {
    "OBJECT_NAME": "STARLINK-5605",
    "OBJECT_ID": "23014W",
    "EPOCH": "2025-11-11T06:38:55.959648",
    "MEAN_MOTION": 14.98324077,
    "ECCENTRICITY": 0.0003197,
    "INCLINATION": 69.9997,
    "RA_OF_ASC_NODE": 3.209,
    "ARG_OF_PERICENTER": 269.629,
    "MEAN_ANOMALY": 90.4502,
    "EPHEMERIS_TYPE": 0,
    "CLASSIFICATION_TYPE": "U",
    "NORAD_CAT_ID": 55411,
    "ELEMENT_SET_NO": 999,
    "REV_AT_EPOCH": 15431,
    "BSTAR": 0.0,
    "MEAN_MOTION_DOT": -1.049e-05,
    "MEAN_MOTION_DDOT": 0.0,
    "TLE_LINE1": "1 55411U 23014W   25315.27703657 -.00001049  00000+0 -80122-4 0  9991",
    "TLE_LINE2": "2 55411  69.9997   3.2090 0003197 269.6290  90.4502 14.98324077154314",
    "COMMENT": "Grouped by shell and plane from TLE"
  },
  {
    "OBJECT_NAME": "STARLINK-5074",
    "OBJECT_ID": "23014AZ",
    "EPOCH": "2025-11-11T06:44:53.849184",
    "MEAN_MOTION": 14.98332812,
    "ECCENTRICITY": 0.0002994,
    "INCLINATION": 70.0001,
    "RA_OF_ASC_NODE": 2.8349,
    "ARG_OF_PERICENTER": 272.3877,
    "MEAN_ANOMALY": 87.6939,
    "EPHEMERIS_TYPE": 0,
    "CLASSIFICATION_TYPE": "U",
    "NORAD_CAT_ID": 55438,
    "ELEMENT_SET_NO": 999,
    "REV_AT_EPOCH": 15432,
    "BSTAR": 0.00011154,
    "MEAN_MOTION_DOT": 1.238e-05,
    "MEAN_MOTION_DDOT": 0.0,
    "TLE_LINE1": "1 55438U 23014AZ  25315.28117881  .00001238  00000+0  11154-3 0  9995",
    "TLE_LINE2": "2 55438  70.0001   2.8349 0002994 272.3877  87.6939 14.98332812154329",
    "COMMENT": "Grouped by shell and plane from TLE"
  },
  {
    "OBJECT_NAME": "STARLINK-30128",
    "OBJECT_ID": "23079K",
    "EPOCH": "2025-11-11T04:29:36.500928",
    "MEAN_MOTION": 15.02537249,
    "ECCENTRICITY": 6.78e-05,
    "INCLINATION": 42.9979,
    "RA_OF_ASC_NODE": 5.2766,
    "ARG_OF_PERICENTER": 266.8418,
    "MEAN_ANOMALY": 93.2346,
    "EPHEMERIS_TYPE": 0,
    "CLASSIFICATION_TYPE": "U",
    "NORAD_CAT_ID": 56832,
    "ELEMENT_SET_NO": 999,
    "REV_AT_EPOCH": 12895,
    "BSTAR": 0.00022209,
    "MEAN_MOTION_DOT": 2.798e-05,
    "MEAN_MOTION_DDOT": 0.0,
    "TLE_LINE1": "1 56832U 23079K   25315.18722802  .00002798  00000+0  22209-3 0  9994",
    "TLE_LINE2": "2 56832  42.9979   5.2766 0000678 266.8418  93.2346 15.02537249128958",
    "COMMENT": "Grouped by shell and plane from TLE"
  },
  {
    "OBJECT_NAME": "STARLINK-30131",
    "OBJECT_ID": "23079L",
    "EPOCH": "2025-11-11T04:13:39.367776",
    "MEAN_MOTION": 15.02537568,
    "ECCENTRICITY": 0.0001116,
    "INCLINATION": 43.0039,
    "RA_OF_ASC_NODE": 5.359,
    "ARG_OF_PERICENTER": 277.6334,
    "MEAN_ANOMALY": 82.4381,
    "EPHEMERIS_TYPE": 0,
    "CLASSIFICATION_TYPE": "U",
    "NORAD_CAT_ID": 56833,
    "ELEMENT_SET_NO": 999,
    "REV_AT_EPOCH": 13535,
    "BSTAR": 9.2258e-05,
    "MEAN_MOTION_DOT": 1.043e-05,
    "MEAN_MOTION_DDOT": 0.0,
    "TLE_LINE1": "1 56833U 23079L   25315.17615009  .00001043  00000+0  92258-4 0  9998",
    "TLE_LINE2": "2 56833  43.0039   5.3590 0001116 277.6334  82.4381 15.02537568135354",
    "COMMENT": "Grouped by shell and plane from TLE"
  },
  {
    "OBJECT_NAME": "STARLINK-6206",
    "OBJECT_ID": "23083A",
    "EPOCH": "2025-11-11T05:04:52.048992",
    "MEAN_MOTION": 15.02544306,
    "ECCENTRICITY": 0.000125,
    "INCLINATION": 43.0044,
    "RA_OF_ASC_NODE": 5.953,
    "ARG_OF_PERICENTER": 264.6589,
    "MEAN_ANOMALY": 95.411,
    "EPHEMERIS_TYPE": 0,
    "CLASSIFICATION_TYPE": "U",
    "NORAD_CAT_ID": 56876,
    "ELEMENT_SET_NO": 999,
    "REV_AT_EPOCH": 13384,
    "BSTAR": 0.0002403,
    "MEAN_MOTION_DOT": 3.044e-05,
    "MEAN_MOTION_DDOT": 0.0,
    "TLE_LINE1": "1 56876U 23083A   25315.21171353  .00003044  00000+0  24030-3 0  9999",
    "TLE_LINE2": "2 56876  43.0044   5.9530 0001250 264.6589  95.4110 15.02544306133848",
    "COMMENT": "Grouped by shell and plane from TLE"
  },
  {
    "OBJECT_NAME": "STARLINK-6209",
    "OBJECT_ID": "23083B",
    "EPOCH": "2025-11-11T03:17:56.925888",
    "MEAN_MOTION": 15.02546571,
    "ECCENTRICITY": 0.000129,
    "INCLINATION": 43.0063,
    "RA_OF_ASC_NODE": 6.2525,
    "ARG_OF_PERICENTER": 275.9282,
    "MEAN_ANOMALY": 84.1414,
    "EPHEMERIS_TYPE": 0,
    "CLASSIFICATION_TYPE": "U",
    "NORAD_CAT_ID": 56877,
    "ELEMENT_SET_NO": 999,
    "REV_AT_EPOCH": 13383,
    "BSTAR": 0.00017258,
    "MEAN_MOTION_DOT": 2.129e-05,
    "MEAN_MOTION_DDOT": 0.0,
    "TLE_LINE1": "1 56877U 23083B   25315.13746442  .00002129  00000+0  17258-3 0  9995",
    "TLE_LINE2": "2 56877  43.0063   6.2525 0001290 275.9282  84.1414 15.02546571133834",
    "COMMENT": "Grouped by shell and plane from TLE"
  },
  {
    "OBJECT_NAME": "STARLINK-6182",
    "OBJECT_ID": "23083C",
    "EPOCH": "2025-11-11T05:03:13.945248",
    "MEAN_MOTION": 15.0255643,
    "ECCENTRICITY": 0.000112,
    "INCLINATION": 43.0069,
    "RA_OF_ASC_NODE": 5.945,
    "ARG_OF_PERICENTER": 259.4485,
    "MEAN_ANOMALY": 100.6232,
    "EPHEMERIS_TYPE": 0,
    "CLASSIFICATION_TYPE": "U",
    "NORAD_CAT_ID": 56878,
    "ELEMENT_SET_NO": 999,
    "REV_AT_EPOCH": 13384,
    "BSTAR": 0.00019389,
    "MEAN_MOTION_DOT": 2.418e-05,
    "MEAN_MOTION_DDOT": 0.0,
    "TLE_LINE1": "1 56878U 23083C   25315.21057807  .00002418  00000+0  19389-3 0  9993",
    "TLE_LINE2": "2 56878  43.0069   5.9450 0001120 259.4485 100.6232 15.02556430133846",
    "COMMENT": "Grouped by shell and plane from TLE"
  }
]